SL-16 R/B               
1 22566U 93016B   26032.94653501  .00000147  00000+0  10007-3 0  9998
2 22566  71.0083 290.2562 0009836   4.7013 355.4201 14.15303053697118
COSMOS 2242             
1 22626U 93024A   26032.79600817  .00002020  00000+0  17555-3 0  9996
2 22626  82.5206 301.0439 0018017  67.8363 292.4769 14.96389336775025
SL-16 R/B               
1 22803U 93059B   26032.83332076  .00000168  00000+0  10684-3 0  9992
2 22803  70.9894  86.7443 0019509 265.4247  94.4648 14.17223818674458
ARIANE 40 R/B           
1 22830U 93061H   26032.80547688  .00000245  00000+0  10562-3 0  9990
2 22830  98.4992 102.3877 0011213  35.9644 324.2293 14.32840787688961
COSMOS 2278             
1 23087U 94023A   26032.95275268 -.00000231  00000+0 -95851-4 0  9994
2 23087  71.0512 249.8662 0006347  80.8295 279.3546 14.14365452639758
SL-16 R/B               
1 23088U 94023B   26032.73267038 -.00000232  00000+0 -95197-4 0  9991
2 23088  71.0000 146.4011 0004427 318.7563  41.3224 14.15004417641002
SL-16 R/B               
1 23343U 94074B   26032.83155839  .00000517  00000+0  75998-4 0  9998
2 23343  97.7153  65.0943 0006204 351.2322 181.7979 14.79362624681940
SL-16 R/B               
1 23405U 94077B   26032.51633245 -.00000202  00000+0 -78931-4 0  9990
2 23405  70.9817  68.5923 0004619 244.4707 115.5938 14.15557047611110
ARIANE 40+ R/B          
1 23561U 95021B   26032.82770417  .00000337  00000+0  12148-3 0  9994
2 23561  98.4570 104.7830 0005773 244.6384 228.0566 14.39744455614082
SL-16 R/B               
1 23705U 95058B   26032.94555631  .00000141  00000+0  96186-4 0  9994
2 23705  71.0190 255.2997 0012707 183.8969 176.2057 14.15488420562791
SL-16 R/B               
1 24298U 96051B   26032.90539546  .00000064  00000+0  61368-4 0  9997
2 24298  70.7567 250.9826 0018027 197.5835 162.4663 14.12405279516596
ORBVIEW 2 (SEASTAR)     
1 24883U 97037A   26032.93917821  .00000304  00000+0  12196-3 0  9992
2 24883  98.8505 196.3164 0002690 145.8483 214.2875 14.35465433503344
