CCSDS_OMM_VERS = 2.0
CREATION_DATE  = 
ORIGINATOR     = 

OBJECT_NAME    = SL-16 R/B
OBJECT_ID      = 1993-016B
CENTER_NAME    = EARTH
REF_FRAME      = TEME
TIME_SYSTEM    = UTC
MEAN_ELEMENT_THEORY = SGP/SGP4

EPOCH          = 2026-02-01T22:43:00.624864
MEAN_MOTION    = 14.15303053
ECCENTRICITY   = .00098361
INCLINATION    = 71.0083
RA_OF_ASC_NODE = 290.2562
ARG_OF_PERICENTER = 4.7013
MEAN_ANOMALY   = 355.4201

EPHEMERIS_TYPE = 0
CLASSIFICATION_TYPE = U
NORAD_CAT_ID   = 22566
ELEMENT_SET_NO = 999
REV_AT_EPOCH   = 69711
BSTAR          = .10007396E-3
MEAN_MOTION_DOT = .147E-5
MEAN_MOTION_DDOT = 0

CCSDS_OMM_VERS = 2.0
CREATION_DATE  = 
ORIGINATOR     = 

OBJECT_NAME    = COSMOS 2242
OBJECT_ID      = 1993-024A
CENTER_NAME    = EARTH
REF_FRAME      = TEME
TIME_SYSTEM    = UTC
MEAN_ELEMENT_THEORY = SGP/SGP4

EPOCH          = 2026-02-01T19:06:15.105888
MEAN_MOTION    = 14.96389336
ECCENTRICITY   = .00180172
INCLINATION    = 82.5206
RA_OF_ASC_NODE = 301.0439
ARG_OF_PERICENTER = 67.8363
MEAN_ANOMALY   = 292.4769

EPHEMERIS_TYPE = 0
CLASSIFICATION_TYPE = U
NORAD_CAT_ID   = 22626
ELEMENT_SET_NO = 999
REV_AT_EPOCH   = 77502
BSTAR          = .17554874E-3
MEAN_MOTION_DOT = .202E-4
MEAN_MOTION_DDOT = 0

CCSDS_OMM_VERS = 2.0
CREATION_DATE  = 
ORIGINATOR     = 

OBJECT_NAME    = SL-16 R/B
OBJECT_ID      = 1993-059B
CENTER_NAME    = EARTH
REF_FRAME      = TEME
TIME_SYSTEM    = UTC
MEAN_ELEMENT_THEORY = SGP/SGP4

EPOCH          = 2026-02-01T19:59:58.913664
MEAN_MOTION    = 14.17223818
ECCENTRICITY   = .00195096
INCLINATION    = 70.9894
RA_OF_ASC_NODE = 86.7443
ARG_OF_PERICENTER = 265.4247
MEAN_ANOMALY   = 94.4648

EPHEMERIS_TYPE = 0
CLASSIFICATION_TYPE = U
NORAD_CAT_ID   = 22803
ELEMENT_SET_NO = 999
REV_AT_EPOCH   = 67445
BSTAR          = .10683523E-3
MEAN_MOTION_DOT = .168E-5
MEAN_MOTION_DDOT = 0

CCSDS_OMM_VERS = 2.0
CREATION_DATE  = 
ORIGINATOR     = 

OBJECT_NAME    = ARIANE 40 R/B
OBJECT_ID      = 1993-061H
CENTER_NAME    = EARTH
REF_FRAME      = TEME
TIME_SYSTEM    = UTC
MEAN_ELEMENT_THEORY = SGP/SGP4

EPOCH          = 2026-02-01T19:19:53.202432
MEAN_MOTION    = 14.32840787
ECCENTRICITY   = .00112133
INCLINATION    = 98.4992
RA_OF_ASC_NODE = 102.3877
ARG_OF_PERICENTER = 35.9644
MEAN_ANOMALY   = 324.2293

EPHEMERIS_TYPE = 0
CLASSIFICATION_TYPE = U
NORAD_CAT_ID   = 22830
ELEMENT_SET_NO = 999
REV_AT_EPOCH   = 68896
BSTAR          = .10561679E-3
MEAN_MOTION_DOT = .245E-5
MEAN_MOTION_DDOT = 0

CCSDS_OMM_VERS = 2.0
CREATION_DATE  = 
ORIGINATOR     = 

OBJECT_NAME    = COSMOS 2278
OBJECT_ID      = 1994-023A
CENTER_NAME    = EARTH
REF_FRAME      = TEME
TIME_SYSTEM    = UTC
MEAN_ELEMENT_THEORY = SGP/SGP4

EPOCH          = 2026-02-01T22:51:57.831552
MEAN_MOTION    = 14.14365452
ECCENTRICITY   = .00063476
INCLINATION    = 71.0512
RA_OF_ASC_NODE = 249.8662
ARG_OF_PERICENTER = 80.8295
MEAN_ANOMALY   = 279.3546

EPHEMERIS_TYPE = 0
CLASSIFICATION_TYPE = U
NORAD_CAT_ID   = 23087
ELEMENT_SET_NO = 999
REV_AT_EPOCH   = 63975
BSTAR          = -.95851231E-4
MEAN_MOTION_DOT = -.231E-5
MEAN_MOTION_DDOT = 0

CCSDS_OMM_VERS = 2.0
CREATION_DATE  = 
ORIGINATOR     = 

OBJECT_NAME    = SL-16 R/B
OBJECT_ID      = 1994-023B
CENTER_NAME    = EARTH
REF_FRAME      = TEME
TIME_SYSTEM    = UTC
MEAN_ELEMENT_THEORY = SGP/SGP4

EPOCH          = 2026-02-01T17:35:02.720832
MEAN_MOTION    = 14.15004417
ECCENTRICITY   = .00044271
INCLINATION    = 71.0000
RA_OF_ASC_NODE = 146.4011
ARG_OF_PERICENTER = 318.7563
MEAN_ANOMALY   = 41.3224

EPHEMERIS_TYPE = 0
CLASSIFICATION_TYPE = U
NORAD_CAT_ID   = 23088
ELEMENT_SET_NO = 999
REV_AT_EPOCH   = 64100
BSTAR          = -.95197029E-4
MEAN_MOTION_DOT = -.232E-5
MEAN_MOTION_DDOT = 0

CCSDS_OMM_VERS = 2.0
CREATION_DATE  = 
ORIGINATOR     = 

OBJECT_NAME    = SL-16 R/B
OBJECT_ID      = 1994-074B
CENTER_NAME    = EARTH
REF_FRAME      = TEME
TIME_SYSTEM    = UTC
MEAN_ELEMENT_THEORY = SGP/SGP4

EPOCH          = 2026-02-01T19:57:26.644896
MEAN_MOTION    = 14.79362624
ECCENTRICITY   = .0006204
INCLINATION    = 97.7153
RA_OF_ASC_NODE = 65.0943
ARG_OF_PERICENTER = 351.2322
MEAN_ANOMALY   = 181.7979

EPHEMERIS_TYPE = 0
CLASSIFICATION_TYPE = U
NORAD_CAT_ID   = 23343
ELEMENT_SET_NO = 999
REV_AT_EPOCH   = 68194
BSTAR          = .75997559E-4
MEAN_MOTION_DOT = .517E-5
MEAN_MOTION_DDOT = 0

CCSDS_OMM_VERS = 2.0
CREATION_DATE  = 
ORIGINATOR     = 

OBJECT_NAME    = SL-16 R/B
OBJECT_ID      = 1994-077B
CENTER_NAME    = EARTH
REF_FRAME      = TEME
TIME_SYSTEM    = UTC
MEAN_ELEMENT_THEORY = SGP/SGP4

EPOCH          = 2026-02-01T12:23:31.123680
MEAN_MOTION    = 14.15557047
ECCENTRICITY   = .00046199
INCLINATION    = 70.9817
RA_OF_ASC_NODE = 68.5923
ARG_OF_PERICENTER = 244.4707
MEAN_ANOMALY   = 115.5938

EPHEMERIS_TYPE = 0
CLASSIFICATION_TYPE = U
NORAD_CAT_ID   = 23405
ELEMENT_SET_NO = 999
REV_AT_EPOCH   = 61111
BSTAR          = -.78930619E-4
MEAN_MOTION_DOT = -.202E-5
MEAN_MOTION_DDOT = 0

CCSDS_OMM_VERS = 2.0
CREATION_DATE  = 
ORIGINATOR     = 

OBJECT_NAME    = ARIANE 40+ R/B
OBJECT_ID      = 1995-021B
CENTER_NAME    = EARTH
REF_FRAME      = TEME
TIME_SYSTEM    = UTC
MEAN_ELEMENT_THEORY = SGP/SGP4

EPOCH          = 2026-02-01T19:51:53.640288
MEAN_MOTION    = 14.39744455
ECCENTRICITY   = .00057734
INCLINATION    = 98.4570
RA_OF_ASC_NODE = 104.7830
ARG_OF_PERICENTER = 244.6384
MEAN_ANOMALY   = 228.0566

EPHEMERIS_TYPE = 0
CLASSIFICATION_TYPE = U
NORAD_CAT_ID   = 23561
ELEMENT_SET_NO = 999
REV_AT_EPOCH   = 61408
BSTAR          = .1214814E-3
MEAN_MOTION_DOT = .337E-5
MEAN_MOTION_DDOT = 0

CCSDS_OMM_VERS = 2.0
CREATION_DATE  = 
ORIGINATOR     = 

OBJECT_NAME    = SL-16 R/B
OBJECT_ID      = 1995-058B
CENTER_NAME    = EARTH
REF_FRAME      = TEME
TIME_SYSTEM    = UTC
MEAN_ELEMENT_THEORY = SGP/SGP4

EPOCH          = 2026-02-01T22:41:36.065184
MEAN_MOTION    = 14.15488420
ECCENTRICITY   = .0012707
INCLINATION    = 71.0190
RA_OF_ASC_NODE = 255.2997
ARG_OF_PERICENTER = 183.8969
MEAN_ANOMALY   = 176.2057

EPHEMERIS_TYPE = 0
CLASSIFICATION_TYPE = U
NORAD_CAT_ID   = 23705
ELEMENT_SET_NO = 999
REV_AT_EPOCH   = 56279
BSTAR          = .96186351E-4
MEAN_MOTION_DOT = .141E-5
MEAN_MOTION_DDOT = 0

CCSDS_OMM_VERS = 2.0
CREATION_DATE  = 
ORIGINATOR     = 

OBJECT_NAME    = SL-16 R/B
OBJECT_ID      = 1996-051B
CENTER_NAME    = EARTH
REF_FRAME      = TEME
TIME_SYSTEM    = UTC
MEAN_ELEMENT_THEORY = SGP/SGP4

EPOCH          = 2026-02-01T21:43:46.167744
MEAN_MOTION    = 14.12405279
ECCENTRICITY   = .00180275
INCLINATION    = 70.7567
RA_OF_ASC_NODE = 250.9826
ARG_OF_PERICENTER = 197.5835
MEAN_ANOMALY   = 162.4663

EPHEMERIS_TYPE = 0
CLASSIFICATION_TYPE = U
NORAD_CAT_ID   = 24298
ELEMENT_SET_NO = 999
REV_AT_EPOCH   = 51659
BSTAR          = .6136813E-4
MEAN_MOTION_DOT = .64E-6
MEAN_MOTION_DDOT = 0

CCSDS_OMM_VERS = 2.0
CREATION_DATE  = 
ORIGINATOR     = 

OBJECT_NAME    = ORBVIEW 2 (SEASTAR)
OBJECT_ID      = 1997-037A
CENTER_NAME    = EARTH
REF_FRAME      = TEME
TIME_SYSTEM    = UTC
MEAN_ELEMENT_THEORY = SGP/SGP4

EPOCH          = 2026-02-01T22:32:24.997344
MEAN_MOTION    = 14.35465433
ECCENTRICITY   = .00026908
INCLINATION    = 98.8505
RA_OF_ASC_NODE = 196.3164
ARG_OF_PERICENTER = 145.8483
MEAN_ANOMALY   = 214.2875

EPHEMERIS_TYPE = 0
CLASSIFICATION_TYPE = U
NORAD_CAT_ID   = 24883
ELEMENT_SET_NO = 999
REV_AT_EPOCH   = 50334
BSTAR          = .12196307E-3
MEAN_MOTION_DOT = .304E-5
MEAN_MOTION_DDOT = 0

